start=new Date('2021-10-09T00:00:00.000Z').valueOf();
sats=[{"TLE_LINE2":"2 45556  53.0537 126.7969 0001960  73.6129 286.5075 15.06396302 82282","SITE":"AFETR","TLE_LINE1":"1 45556U 20025AB  21281.88350389  .00000955  00000-0  83050-4 0  9991","PERIAPSIS":"545.868","RCS_SIZE":"LARGE","FILE":"3152020","MEAN_ELEMENT_THEORY":"SGP4","SEMIMAJOR_AXIS":"6925.360","REV_AT_EPOCH":"8228","MEAN_MOTION_DDOT":"0.0000000000000","LAUNCH_DATE":"2020-04-22","GP_ID":"186593496","INCLINATION":"53.0537","DECAY_DATE":null,"EPOCH":"2021-10-08T21:12:14.736096","OBJECT_TYPE":"PAYLOAD","COUNTRY_CODE":"US","RA_OF_ASC_NODE":"126.7969","MEAN_MOTION":"15.06396302","ECCENTRICITY":"0.00019600","BSTAR":"0.00008305000000","OBJECT_ID":"2020-025AB","CLASSIFICATION_TYPE":"U","MEAN_MOTION_DOT":"0.00000955","PERIOD":"95.592","ARG_OF_PERICENTER":"73.6129","APOAPSIS":"548.582","OBJECT_NAME":"STARLINK-1334","NORAD_CAT_ID":"45556","REF_FRAME":"TEME","CENTER_NAME":"EARTH","EPHEMERIS_TYPE":"0","MEAN_ANOMALY":"286.5075","TIME_SYSTEM":"UTC","ELEMENT_SET_NO":"999"},{"ELEMENT_SET_NO":"999","TIME_SYSTEM":"UTC","MEAN_ANOMALY":"288.0159","EPHEMERIS_TYPE":"0","CENTER_NAME":"EARTH","REF_FRAME":"TEME","NORAD_CAT_ID":"45557","OBJECT_NAME":"STARLINK-1336","APOAPSIS":"548.691","ARG_OF_PERICENTER":"72.1062","PERIOD":"95.592","MEAN_MOTION_DOT":"0.00000465","CLASSIFICATION_TYPE":"U","OBJECT_ID":"2020-025AC","BSTAR":"0.00005009800000","ECCENTRICITY":"0.00021310","RA_OF_ASC_NODE":"126.7647","MEAN_MOTION":"15.06399497","COUNTRY_CODE":"US","OBJECT_TYPE":"PAYLOAD","EPOCH":"2021-10-08T21:22:52.552992","DECAY_DATE":null,"INCLINATION":"53.0556","GP_ID":"186594748","LAUNCH_DATE":"2020-04-22","MEAN_MOTION_DDOT":"0.0000000000000","REV_AT_EPOCH":"8228","SEMIMAJOR_AXIS":"6925.350","MEAN_ELEMENT_THEORY":"SGP4","FILE":"3152020","RCS_SIZE":"LARGE","PERIAPSIS":"545.739","TLE_LINE1":"1 45557U 20025AC  21281.89088603  .00000465  00000-0  50098-4 0  9992","TLE_LINE2":"2 45557  53.0556 126.7647 0002131  72.1062 288.0159 15.06399497 82286","SITE":"AFETR"},{"MEAN_ELEMENT_THEORY":"SGP4","FILE":"3152020","SEMIMAJOR_AXIS":"6925.386","SITE":"AFETR","TLE_LINE2":"2 45558  53.0535 126.9101 0001870  84.3124 275.8079 15.06387847 82274","TLE_LINE1":"1 45558U 20025AD  21281.85772789  .00001621  00000-0  12773-3 0  9996","RCS_SIZE":"LARGE","PERIAPSIS":"545.956","OBJECT_TYPE":"PAYLOAD","COUNTRY_CODE":"US","RA_OF_ASC_NODE":"126.9101","MEAN_MOTION":"15.06387847","REV_AT_EPOCH":"8227","MEAN_MOTION_DDOT":"0.0000000000000","LAUNCH_DATE":"2020-04-22","GP_ID":"186594995","INCLINATION":"53.0535","DECAY_DATE":null,"EPOCH":"2021-10-08T20:35:07.689696","MEAN_MOTION_DOT":"0.00001621","PERIOD":"95.593","ARG_OF_PERICENTER":"84.3124","APOAPSIS":"548.546","OBJECT_NAME":"STARLINK-1342","NORAD_CAT_ID":"45558","REF_FRAME":"TEME","ECCENTRICITY":"0.00018700","BSTAR":"0.00012773000000","OBJECT_ID":"2020-025AD","CLASSIFICATION_TYPE":"U","MEAN_ANOMALY":"275.8079","TIME_SYSTEM":"UTC","ELEMENT_SET_NO":"999","CENTER_NAME":"EARTH","EPHEMERIS_TYPE":"0"},{"MEAN_ANOMALY":"271.3060","TIME_SYSTEM":"UTC","ELEMENT_SET_NO":"999","CENTER_NAME":"EARTH","EPHEMERIS_TYPE":"0","PERIOD":"95.592","ARG_OF_PERICENTER":"88.8139","MEAN_MOTION_DOT":"0.00001793","NORAD_CAT_ID":"45559","REF_FRAME":"TEME","APOAPSIS":"548.466","OBJECT_NAME":"STARLINK-1344","OBJECT_ID":"2020-025AE","ECCENTRICITY":"0.00018360","BSTAR":"0.00013919000000","CLASSIFICATION_TYPE":"U","OBJECT_TYPE":"PAYLOAD","RA_OF_ASC_NODE":"126.7404","MEAN_MOTION":"15.06406118","COUNTRY_CODE":"US","LAUNCH_DATE":"2020-04-22","REV_AT_EPOCH":"8228","MEAN_MOTION_DDOT":"0.0000000000000","DECAY_DATE":null,"EPOCH":"2021-10-08T21:28:10.944768","GP_ID":"186593747","INCLINATION":"53.0533","MEAN_ELEMENT_THEORY":"SGP4","FILE":"3152020","SEMIMAJOR_AXIS":"6925.330","TLE_LINE1":"1 45559U 20025AE  21281.89457112  .00001793  00000-0  13919-3 0  9994","PERIAPSIS":"545.923","RCS_SIZE":"LARGE","SITE":"AFETR","TLE_LINE2":"2 45559  53.0533 126.7404 0001836  88.8139 271.3060 15.06406118 82289"},{"CLASSIFICATION_TYPE":"U","BSTAR":"0.00011117000000","ECCENTRICITY":"0.00020440","OBJECT_ID":"2020-025AF","OBJECT_NAME":"STARLINK-1346","APOAPSIS":"548.605","REF_FRAME":"TEME","NORAD_CAT_ID":"45560","MEAN_MOTION_DOT":"0.00001375","PERIOD":"95.592","ARG_OF_PERICENTER":"72.1668","EPHEMERIS_TYPE":"0","CENTER_NAME":"EARTH","ELEMENT_SET_NO":"999","TIME_SYSTEM":"UTC","MEAN_ANOMALY":"287.9544","SITE":"AFETR","TLE_LINE2":"2 45560  53.0540 117.1036 0002044  72.1668 287.9544 15.06407893 82415","PERIAPSIS":"545.774","RCS_SIZE":"LARGE","TLE_LINE1":"1 45560U 20025AF  21281.81438882  .00001375  00000-0  11117-3 0  9995","SEMIMAJOR_AXIS":"6925.324","FILE":"3152020","MEAN_ELEMENT_THEORY":"SGP4","INCLINATION":"53.0540","GP_ID":"186593997","EPOCH":"2021-10-08T19:32:43.194048","DECAY_DATE":null,"MEAN_MOTION_DDOT":"0.0000000000000","REV_AT_EPOCH":"8241","LAUNCH_DATE":"2020-04-22","COUNTRY_CODE":"US","RA_OF_ASC_NODE":"117.1036","MEAN_MOTION":"15.06407893","OBJECT_TYPE":"PAYLOAD"},{"DECAY_DATE":null,"EPOCH":"2021-10-08T20:30:34.980192","GP_ID":"186594248","INCLINATION":"53.0600","LAUNCH_DATE":"2020-04-22","REV_AT_EPOCH":"8347","MEAN_MOTION_DDOT":"0.0000000000000","RA_OF_ASC_NODE":"41.7119","MEAN_MOTION":"15.07161005","COUNTRY_CODE":"US","OBJECT_TYPE":"PAYLOAD","TLE_LINE1":"1 45561U 20025AG  21281.85457153  .00005093  00000-0  35331-3 0  9997","PERIAPSIS":"544.026","RCS_SIZE":"LARGE","TLE_LINE2":"2 45561  53.0600  41.7119 0001237 127.9833 232.1268 15.07161005 83478","SITE":"AFETR","SEMIMAJOR_AXIS":"6923.017","MEAN_ELEMENT_THEORY":"SGP4","FILE":"3152020","CENTER_NAME":"EARTH","EPHEMERIS_TYPE":"0","TIME_SYSTEM":"UTC","ELEMENT_SET_NO":"999","MEAN_ANOMALY":"232.1268","CLASSIFICATION_TYPE":"U","OBJECT_ID":"2020-025AG","ECCENTRICITY":"0.00012370","BSTAR":"0.00035331000000","NORAD_CAT_ID":"45561","REF_FRAME":"TEME","APOAPSIS":"545.739","OBJECT_NAME":"STARLINK-1348","PERIOD":"95.544","ARG_OF_PERICENTER":"127.9833","MEAN_MOTION_DOT":"0.00005093"},{"EPHEMERIS_TYPE":"0","CENTER_NAME":"EARTH","ELEMENT_SET_NO":"999","TIME_SYSTEM":"UTC","MEAN_ANOMALY":"274.0405","CLASSIFICATION_TYPE":"U","OBJECT_ID":"2020-025AH","BSTAR":"-0.00002317200000","ECCENTRICITY":"0.00021110","NORAD_CAT_ID":"45562","REF_FRAME":"TEME","OBJECT_NAME":"STARLINK-1354","APOAPSIS":"548.688","ARG_OF_PERICENTER":"86.0825","PERIOD":"95.592","MEAN_MOTION_DOT":"-0.00000627","EPOCH":"2021-10-08T18:27:42.869088","DECAY_DATE":null,"INCLINATION":"53.0534","GP_ID":"186594495","LAUNCH_DATE":"2020-04-22","MEAN_MOTION_DDOT":"0.0000000000000","REV_AT_EPOCH":"8226","RA_OF_ASC_NODE":"127.3065","MEAN_MOTION":"15.06395773","COUNTRY_CODE":"US","OBJECT_TYPE":"PAYLOAD","PERIAPSIS":"545.765","RCS_SIZE":"LARGE","TLE_LINE1":"1 45562U 20025AH  21281.76924617 -.00000627  00000-0 -23172-4 0  9993","SITE":"AFETR","TLE_LINE2":"2 45562  53.0534 127.3065 0002111  86.0825 274.0405 15.06395773 82268","SEMIMAJOR_AXIS":"6925.362","FILE":"3152020","MEAN_ELEMENT_THEORY":"SGP4"},{"CENTER_NAME":"EARTH","EPHEMERIS_TYPE":"0","MEAN_ANOMALY":"279.7098","TIME_SYSTEM":"UTC","ELEMENT_SET_NO":"999","ECCENTRICITY":"0.00018940","BSTAR":"0.00012058000000","OBJECT_ID":"2020-025AJ","CLASSIFICATION_TYPE":"U","MEAN_MOTION_DOT":"0.00001515","PERIOD":"95.592","ARG_OF_PERICENTER":"80.4104","APOAPSIS":"548.529","OBJECT_NAME":"STARLINK-1355","REF_FRAME":"TEME","NORAD_CAT_ID":"45563","REV_AT_EPOCH":"8227","MEAN_MOTION_DDOT":"0.0000000000000","LAUNCH_DATE":"2020-04-22","GP_ID":"186593247","INCLINATION":"53.0537","DECAY_DATE":null,"EPOCH":"2021-10-08T20:24:31.100544","OBJECT_TYPE":"PAYLOAD","COUNTRY_CODE":"US","RA_OF_ASC_NODE":"126.9424","MEAN_MOTION":"15.06398869","SITE":"AFETR","TLE_LINE2":"2 45563  53.0537 126.9424 0001894  80.4104 279.7098 15.06398869 82271","TLE_LINE1":"1 45563U 20025AJ  21281.85035996  .00001515  00000-0  12058-3 0  9992","RCS_SIZE":"LARGE","PERIAPSIS":"545.905","MEAN_ELEMENT_THEORY":"SGP4","FILE":"3152020","SEMIMAJOR_AXIS":"6925.352"},{"MEAN_MOTION_DOT":"0.00001287","ARG_OF_PERICENTER":"77.4479","PERIOD":"95.592","OBJECT_NAME":"STARLINK-1356","APOAPSIS":"548.669","REF_FRAME":"TEME","NORAD_CAT_ID":"45564","BSTAR":"0.00010531000000","ECCENTRICITY":"0.00021130","OBJECT_ID":"2020-025AK","CLASSIFICATION_TYPE":"U","MEAN_ANOMALY":"282.6747","ELEMENT_SET_NO":"999","TIME_SYSTEM":"UTC","EPHEMERIS_TYPE":"0","CENTER_NAME":"EARTH","FILE":"3152020","MEAN_ELEMENT_THEORY":"SGP4","SEMIMAJOR_AXIS":"6925.341","TLE_LINE2":"2 45564  53.0528 127.2541 0002113  77.4479 282.6747 15.06402490 82261","SITE":"AFETR","RCS_SIZE":"LARGE","PERIAPSIS":"545.743","TLE_LINE1":"1 45564U 20025AK  21281.78030925  .00001287  00000-0  10531-3 0  9992","OBJECT_TYPE":"PAYLOAD","COUNTRY_CODE":"US","MEAN_MOTION":"15.06402490","RA_OF_ASC_NODE":"127.2541","MEAN_MOTION_DDOT":"0.0000000000000","REV_AT_EPOCH":"8226","LAUNCH_DATE":"2020-04-22","INCLINATION":"53.0528","GP_ID":"186593497","EPOCH":"2021-10-08T18:43:38.719200","DECAY_DATE":null},{"EPHEMERIS_TYPE":"0","CENTER_NAME":"EARTH","ELEMENT_SET_NO":"999","TIME_SYSTEM":"UTC","MEAN_ANOMALY":"272.1967","CLASSIFICATION_TYPE":"U","BSTAR":"0.00006946900000","ECCENTRICITY":"0.00020170","OBJECT_ID":"2020-025AL","OBJECT_NAME":"STARLINK-1357","APOAPSIS":"548.590","NORAD_CAT_ID":"45565","REF_FRAME":"TEME","MEAN_MOTION_DOT":"0.00000753","PERIOD":"95.592","ARG_OF_PERICENTER":"87.9253","INCLINATION":"53.0544","GP_ID":"186594749","EPOCH":"2021-10-08T20:08:33.519840","DECAY_DATE":null,"MEAN_MOTION_DDOT":"0.0000000000000","REV_AT_EPOCH":"8227","LAUNCH_DATE":"2020-04-22","COUNTRY_CODE":"US","RA_OF_ASC_NODE":"126.9922","MEAN_MOTION":"15.06406702","OBJECT_TYPE":"PAYLOAD","SITE":"AFETR","TLE_LINE2":"2 45565  53.0544 126.9922 0002017  87.9253 272.1967 15.06406702 82277","RCS_SIZE":"LARGE","PERIAPSIS":"545.796","TLE_LINE1":"1 45565U 20025AL  21281.83927685  .00000753  00000-0  69469-4 0  9999","SEMIMAJOR_AXIS":"6925.328","FILE":"3152020","MEAN_ELEMENT_THEORY":"SGP4"}];
